TOMORROW-S1             
1 60479U 24149M   26068.72470524  .00008620  00000+0  28856-3 0  9996
2 60479  97.3791 149.6044 0001819 207.2040 152.9106 15.31198362 86867
STARLINK-35539          
1 65915U 25225F   26068.53139434  .00037717  00000+0  12807-2 0  9990
2 65915  53.1590 166.4505 0001569  68.7551 291.3618 15.30161108 24384
